#cP2014  2 14  0  0  0.00000000      96 ORBIT IGb08 HLM  IGS
## 1779 432000.00000000   900.00000000 56702 0.0000000000000
+   31   G01G02G03G04G05G06G07G08G09G10G11G12G13G14G15G16G17
+        G18G19G20G21G22G23G24G25G26G27G28G29G31G32  0  0  0
+          0  0  0  0  0  0  0  0  0  0  0  0  0  0  0  0  0
+          0  0  0  0  0  0  0  0  0  0  0  0  0  0  0  0  0
+          0  0  0  0  0  0  0  0  0  0  0  0  0  0  0  0  0
++         2  0  2  2  2  2  2  3  3  2  2  2  2  2  2  2  2
++         2  2  2  2  2  2  2  2  2  2  2  2  3  2  0  0  0
++         0  0  0  0  0  0  0  0  0  0  0  0  0  0  0  0  0
++         0  0  0  0  0  0  0  0  0  0  0  0  0  0  0  0  0
++         0  0  0  0  0  0  0  0  0  0  0  0  0  0  0  0  0
%c G  cc GPS ccc cccc cccc cccc cccc ccccc ccccc ccccc ccccc
%c cc cc ccc ccc cccc cccc cccc cccc ccccc ccccc ccccc ccccc
%f  1.2500000  1.025000000  0.00000000000  0.000000000000000
%f  0.0000000  0.000000000  0.00000000000  0.000000000000000
%i    0    0    0    0      0      0      0      0         0
%i    0    0    0    0      0      0      0      0         0
/* FINAL ORBIT COMBINATION FROM WEIGHTED AVERAGE OF:        
/* cod emr esa gfz grg jpl mit ngs                          
/* REFERENCED TO IGS TIME (IGST) AND TO WEIGHTED MEAN POLE: 
/* PCV:IGS08_1771 OL/AL:FES2004  NONE     Y  ORB:CMB CLK:CMB
*  2014  2 14 13 30  0.00000000
PG01   1920.513038  15266.351943 -21673.115291     -0.856080  6  6  4  49       
PG02  18756.285481 -15016.686174  11006.030998 999999.999999
PG03  -7419.540329  23938.669675   7998.080418    325.667159  7  5  7 104       
PG04  25874.262143  -5316.533262  -4140.881580      5.541971  9  6  6 136       
PG05   8254.268213 -13288.706972  21412.292608   -388.569672  6  5  4 102       
PG06 -13295.654858  17512.722813  14652.880497    275.280329  6  5  5 105       
PG07  17270.804443   8111.055833  18679.950113    313.802355  4  5  7  86       
PG08  24778.149241   2001.038163  10318.318641     11.902503  8  6  7 101       
PG09  24754.339820  -1463.317130   9202.011376    305.440394  8  5  7 106       
PG10  21129.134659   4374.923452  15426.456150   -114.276961  6  5  4  79       
PG11  -4089.429353  20107.237909 -17239.947276   -464.228878  2  4  4  88       
PG12  -7833.641879 -21015.156580 -14451.496397    186.392862  6  7  5 116       
PG13   7452.906134  17271.128706  18553.552764     29.692830  5  7  4  90       
PG14 -15355.328345    232.646399 -21439.947135    198.350545  7  6  4  89       
PG15   3514.887190 -26119.736847  -1610.856749   -163.097503  6  5  4 105       
PG16  -8053.087522  12486.281571  21954.447140   -231.556812  6  7  5 119       
PG17  15544.605127  -1806.557524 -21177.433050    -68.212893  9  7  4 127       
PG18 -20567.082591 -16995.187792  -1392.177520    301.885421  9  8  8 101       
PG19  -6983.877578  25340.203347  -1424.799965   -438.824152  7  3  6  79       
PG20  10495.093470  20860.565135 -12912.353054    161.655774  6  3  7  91       
PG21 -18922.852549  -7722.911637  17820.538952   -343.936245  8  9  6 112       
PG22 -22266.210102  -7433.146979 -12374.703265    213.346839  9  8  6 110       
PG23   1518.318168  24490.663450   9723.919400      4.019581  5  6  2  93       
PG24   3719.924563 -16438.617139 -20517.563432    -23.302058  6  7  5 108       
PG25 -17791.599603 -19456.777651  -3792.458399     14.503212  7  5  4  94       
PG26  12627.768378 -21472.339907   8089.950610    165.297153  6  3  4  90       
PG27 -12512.483289  20419.557010  11443.490935    -18.612348  6  3  8  89       
PG28  21160.275261  11931.383624 -10296.052513    332.470092  8  8  7 118       
PG29  -6653.965873 -19553.043193  16769.396071    510.926486  8  4  3  82       
PG31 -25644.428078   7554.475446    177.914840    333.219950  6  7  8  93       
PG32  -1655.143983  18440.107144 -19161.879384   -485.791720  6  7  4  92       
*  2014  2 14 13 45  0.00000000
PG01   -402.474990  16035.300577 -21182.255391     -0.854155  6  6  4  40       
PG02  19894.094327 -15120.463424   8475.417941 999999.999999
PG03  -7697.799208  22792.182994  10531.463716    325.672668  7  5  7 105       
PG04  25416.505420  -4845.480802  -6845.159544      5.542153  9  5  6 133       
PG05  10155.386799 -11710.546122  21529.931898   -388.567998  7  5  4  95       
PG06 -13322.567063  15698.824786  16599.869914    275.293423  6  5  5 110       
PG07  15220.295687   8882.431870  20038.632286    313.806089  4  5  7 101       
PG08  23550.402490   2366.772775  12795.736981     11.903112  7  6  7  86       
PG09  23622.098336   -880.039474  11740.596128    305.442313  7  5  8 108       
PG10  22261.799828   5644.747239  13363.966070   -114.278731  6  5  3  87       
PG11  -5709.322114  21002.221808 -15565.288828   -464.231641  3  3  5  98       
PG12  -6463.296639 -19918.824512 -16520.662631    186.395182  5  7  5 112       
PG13   6748.738055  19202.236180  16846.676842     29.689130  4  7  4  80       
PG14 -14752.503409  -2210.200555 -21757.778821    198.347801  7  6  4  99       
PG15   3858.161997 -26087.038402   1214.558078   -163.099375  6  5  5  93       
PG16  -9900.755323  10765.925324  22139.877152   -231.555512  6  7  6 121       
PG17  15038.255561    644.862004 -21621.379458    -68.215873  9  8  4 125       
PG18 -20392.207810 -17276.512323   1373.373660    301.887304  8  9  8 103       
PG19  -7247.432436  25249.597734   1465.541379   -438.826156  7  4  5  84       
PG20   9081.983130  20119.622746 -15012.471500    161.658658  6  4  7 100       
PG21 -17086.090829  -8534.433216  19254.579657   -343.937710  8  9  5 106       
PG22 -23076.917998  -8505.964815 -10026.311431    213.348800  9  8  6 120       
PG23   1056.441579  25381.150917   7087.533564      4.016573  6  6  2  88       
PG24   5900.680659 -17129.420301 -19402.686122    -23.302428  6  7  6 105       
PG25 -17216.899727 -19232.184547  -6587.943308     14.504789  7  5  4 107       
PG26  12527.173842 -20286.406506  10707.748347    165.287309  6  3  4  70       
PG27 -12461.120160  18961.452319  13774.258544    -18.613369  5  4  8 106       
PG28  21833.904868  12816.363528  -7653.247304    332.472619  8  8  7 109       
PG29  -6088.312510 -21263.635552  14783.330776    510.929069  8  4  3  97       
PG31 -25547.663881   7335.437731  -2691.294700    333.220191  7  7  8  89       
PG32  -3314.542212  16902.223628 -20278.196779   -485.785839  6  7  4  91       
*  2014  2 14 14  0  0.00000000
PG01  -2613.201310  16895.263246 -20327.331932     -0.852245  6  5  5  67       
PG02  20758.736764 -15155.183237   5796.071742 999999.999999
PG03  -8040.211445  21378.285086  12877.315190    325.677859  7  5  6 104       
PG04  24710.973136  -4237.197216  -9434.314317      5.542833  9  5  6 139       
PG05  12125.361749 -10234.730539  21275.822442   -388.566581  7  5  4 102       
PG06 -13425.773146  13687.058678  18257.573939    275.306414  6  5  6 106       
PG07  13088.774183   9815.972554  21057.305881    313.810048  4  5  7 103       
PG08  22091.382810   2880.032551  15061.299741     11.903743  7  6  6  86       
PG09  22264.909107   -121.523590  14073.234481    305.444953  7  6  7 105       
PG10  23260.070535   6701.699903  11071.742461   -114.280510  6  6  3  88       
PG11  -7144.008635  21834.368040 -13628.655759   -464.234526  5  3  5  82       
PG12  -4862.892826 -18764.574795 -18309.115684    186.397241  6  7  6 129       
PG13   6198.081306  20962.341170  14845.307457     29.685725  4  8  4  68       
PG14 -14277.605598  -4694.538933 -21693.549241    198.345148  6  6  4 115       
PG15   4174.487462 -25752.084462   4018.678288   -163.101050  7  6  5  86       
PG16 -11838.956564   9154.690654  21943.277266   -231.554196  7  7  6 125       
PG17  14656.641478   3146.047164 -21684.126949    -68.218725  8  8  3 138       
PG18 -19986.743629 -17379.268780   4115.854144    301.889479  8  9  8 103       
PG19  -7445.873591  24850.355785   4329.923636   -438.828286  8  5  5  88       
PG20   7452.807842  19323.752667 -16858.142283    161.661723  7  5  7  85       
PG21 -15162.540760  -9491.674694  20377.343975   -343.940117  7  9  4 109       
PG22 -23716.757818  -9373.477503  -7505.331457    213.350990  9  8  6 115       
PG23    679.019096  25989.266256   4326.576124      4.013489  7  7  4 101       
PG24   7910.674827 -17873.762904 -17953.410919    -23.303025  5  6  6 106       
PG25 -16382.652300 -18854.482783  -9271.059063     14.506358  8  5  4 111       
PG26  12429.064582 -18807.925424  13132.135076    165.277380  6  4  5  85       
PG27 -12456.305730  17253.885653  15867.525178    -18.614376  5  5  8  86       
PG28  22320.701837  13456.610715  -4876.997975    332.475322  8  8  7 108       
PG29  -5655.674840 -22766.723341  12544.096315    510.931799  8  4  3 106       
PG31 -25165.136823   6992.253381  -5514.965054    333.220243  7  7  7  90       
PG32  -5132.742687  15375.935871 -21047.360161   -485.779854  6  7  4  97       
EOF
